OSIRIS-3U               
1 43027U 98067NL  18342.84060112  .00082614  00000-0  44814-3 0  9991
2 43027  51.6340 198.6438 0004446 150.4385 209.6868 15.79302296 59861
AEROCUBE 7B             
1 43042U 17071F   18342.36218688  .00003176  00000-0  88335-4 0  9997
2 43042  51.6391 272.3171 0004810 169.4999 190.6087 15.39969528 56439
AEROCUBE 7C             
1 43043U 17071G   18342.88127466  .00003839  00000-0  10477-3 0  9995
2 43043  51.6391 269.7927 0004978 172.6035 187.5024 15.39944296 56487
CHEFSAT                 
1 43044U 17071H   18342.81419185  .00008054  00000-0  19773-3 0  9993
2 43044  51.6394 267.9034 0004871 169.5423 190.5665 15.41600038 56502
ASGARDIA 1              
1 43049U 17071N   18342.84826281  .00002900  00000-0  81257-4 0  9991
2 43049  51.6395 269.5862 0002290 182.6335 177.4638 15.40066783 56478
ISARA                   
1 43050U 17071P   18342.84190054  .00005134  00000-0  13093-3 0  9999
2 43050  51.6389 268.0686 0002173 174.5642 185.5368 15.41281632 56497
FAUNA                   
1 43052U 17071R   18342.23438123  .00003201  00000-0  88110-4 0  9992
2 43052  51.6399 272.2507 0002270 175.3312 184.7695 15.40257278 56380
CORVUS BC3              
1 43118U 18004H   18342.71622640  .00000760  00000-0  35827-4 0  9998
2 43118  97.5129  45.4667 0010073 196.1129 163.9789 15.22531374 50263
MICROMAS-2A             
1 43131U 18004W   18341.93797298  .00001473  00000-0  64886-4 0  9997
2 43131  97.5144  45.0091 0009086 201.0258 159.0606 15.23410872 50166
CICERO 7                
1 43143U 18004AJ  18341.79000935  .00001481  00000-0  64739-4 0  9995
2 43143  97.5138  45.0420 0006898 209.4697 150.6152 15.23682600 50157
GOMX4-B                 
1 43196U 18015E   18342.89454904  .00000365  00000-0  18094-4 0  9999
2 43196  97.3679 108.5056 0017606 263.0995  96.8238 15.23774219 47137
GOMX4-A                 
1 43197U 18015F   18342.11548588  .00000366  00000-0  18090-4 0  9994
2 43197  97.3680 107.7469 0017635 266.5725 178.6910 15.23842399 47029
1KUNS-PF                
1 43466U 98067NP  18342.69205183  .00016283  00000-0  20502-3 0  9997
2 43466  51.6382 224.0376 0001609 109.1766 250.9402 15.59788895 32899
UBAKUSAT                
1 43467U 98067NQ  18342.11466961  .00007691  00000-0  10487-3 0  9992
2 43467  51.6381 227.6804 0003334  75.3313 284.8049 15.58580957 32805
BATSU-CS1 (IRAZU)       
1 43468U 98067NR  18342.82819615  .00019554  00000-0  23649-3 0  9994
2 43468  51.6379 222.6959 0001603 115.4093 244.7067 15.60704083132916
CUBERRT                 
1 43546U 98067NU  18342.85779832  .00022495  00000-0  29657-3 0  9993
2 43546  51.6378 225.8853 0006736 128.5853 231.5744 15.58301905 23021
TEMPEST-D               
1 43547U 98067NV  18342.86661238  .00004082  00000-0  64631-4 0  9999
2 43547  51.6384 226.6890 0006718 122.5966 237.5675 15.55929428 22692
RAINCUBE                
1 43548U 98067NW  18342.89227462  .00010966  00000-0  15488-3 0  9993
2 43548  51.6382 226.1118 0006765 133.0499 227.1060 15.57101485 23151
HALOSAT                 
1 43549U 98067NX  18342.89269694  .00012307  00000-0  17277-3 0  9996
2 43549  51.6383 226.1162 0006660 135.4917 224.6611 15.57131971 22715
ENDUROSAT ONE           
1 43551U 98067NZ  18341.95309664  .00008998  00000-0  12543-3 0  9999
2 43551  51.6384 230.3386 0007237 137.8813 222.2736 15.57722906 22981
EQUISAT                 
1 43552U 98067PA  18342.86655234  .00010452  00000-0  14650-3 0  9997
2 43552  51.6380 225.9412 0007435 141.5850 218.5673 15.57365535 23082
AEROCUBE 12A            
1 43556U 18046C   18341.96030592  .00000438  00000-0  28586-4 0  9991
2 43556  51.6432 260.7159 0009205  99.4914 260.7106 15.28086631 22082
AEROCUBE 12B            
1 43557U 18046D   18341.83167648  .00000564  00000-0  33150-4 0  9994
2 43557  51.6432 261.3562 0009178  99.1683 261.0335 15.28035326 22013
UITMSAT-1               
1 43589U 98067PD  18342.85260465  .00011541  00000-0  16303-3 0  9991
2 43589  51.6379 226.5934 0006743 148.3787 211.7611 15.57035903 18816
MAYA-1                  
1 43590U 98067PE  18342.08031261  .00008119  00000-0  11674-3 0  9991
2 43590  51.6383 230.4362 0006832 146.2630 213.8798 15.57038470 18625
BHUTAN-1                
1 43591U 98067PF  18342.84741125  .00011431  00000-0  16114-3 0  9998
2 43591  51.6377 226.5597 0006905 150.5751 209.5630 15.57103069 18745
SIRIUSSAT-1             
1 43595U 98067PG  18342.88329483  .00011452  00000-0  16445-3 0  9995
2 43595  51.6378 226.7950 0004701 108.8863 251.2639 15.56607682 17928
SIRIUSSAT-2             
1 43596U 98067PH  18342.89407947  .00011642  00000-0  16800-3 0  9995
2 43596  51.6387 226.8782 0005358 110.8967 249.2599 15.56451426 17925
TANUSHA-3               
1 43597U 98067PJ  18342.87849245  .00013772  00000-0  19414-3 0  9995
2 43597  51.6368 226.7513 0004919 122.2756 237.8713 15.56910448 17926
SURFSAT                 
1 43614U 18070B   18341.82458015  .00002877  00000-0  80499-4 0  9992
2 43614  93.0357 283.9261 0015489 339.1751  20.8868 15.36614125 12788
CP-7 (DAVE)             
1 43615U 18070C   18342.86638886  .00002746  00000-0  76864-4 0  9990
2 43615  93.0361 284.3578 0015301 334.5311  25.5186 15.36609860 12947
ELFIN-B                 
1 43616U 18070D   18342.86023134  .00004241  00000-0  11774-3 0  9995
2 43616  93.0333 284.3193 0016606 337.9782  22.0755 15.36814304 12943
ELFIN-A                 
1 43617U 18070E   18342.85849021  .00004442  00000-0  12323-3 0  9990
2 43617  93.0383 284.3857 0015484 334.5572  25.4917 15.36848659 12946
DEBRISSAT-1             
1 43621U 98067PM  18342.89912620  .00086728  00000-0  84405-3 0  9996
2 43621  51.6446 223.9523 0009472 142.8797 217.2855 15.65476757 12950
CUBEBEL-1 (BSUSAT-1)    
1 43666U 18083E   18342.78434792  .00001110  00000-0  59166-4 0  9991
2 43666  97.5359   3.4454 0016629 130.3443 316.2988 15.17170320  6186
DEBRISSAT-2             
1 43680U 98067PR  18342.54908471  .00013770  00000-0  19732-3 0  9990
2 43680  51.6405 228.3003 0004869 132.9054 227.2342 15.56463568 26619
CICERO 10               
1 43690U 18088A   18342.78624704  .00001173  00000-0  53614-4 0  9998
2 43690  85.0394  84.8046 0015278 182.9453 177.1700 15.19278270  4209
IRVINE01                
1 43693U 18088D   18342.76404412  .00002888  00000-0  12967-3 0  9990
2 43693  85.0373  84.7744 0019406 171.6946 188.4620 15.20536316  4196
PROXIMA I               
1 43694U 18088E   18342.75438656  .00001106  00000-0  47777-4 0  9997
2 43694  85.0337  84.7497 0020288 163.4185 196.7725 15.21034663  4193
PROXIMA II              
1 43696U 18088G   18342.75425667  .00001078  00000-0  46512-4 0  9991
2 43696  85.0338  84.7499 0020330 163.3951 196.7961 15.21040746  4197
FACSAT-1                
1 43721U 18096C   18342.86824692  .00001332  00000-0  55000-4 0  9997
2 43721  97.4844  47.8647 0016801 287.0560  72.8837 15.25723365  1482
CENTAURI-2              
1 43722U 18096D   18342.60546567  .00001763  00000-0  71685-4 0  9997
2 43722  97.4846  47.6028 0016945 289.0287  70.9115 15.25799418  1438
